{"fetched_at":"2026-07-15T17:46:48.171Z","source":"https://celestrak.org/NORAD/elements/gp.php?GROUP=planet&FORMAT=JSON","constellation":"superdove","records":[{"OBJECT_NAME":"FLOCK 4G-23","OBJECT_ID":"2025-009AQ","EPOCH":"2026-07-15T03:54:36.126432","CLASSIFICATION_TYPE":"U","MEAN_MOTION":15.34765088,"ECCENTRICITY":0.0003173,"INCLINATION":97.393,"RA_OF_ASC_NODE":277.8521,"ARG_OF_PERICENTER":172.6489,"MEAN_ANOMALY":187.4801,"EPHEMERIS_TYPE":0,"NORAD_CAT_ID":62647,"ELEMENT_SET_NO":999,"REV_AT_EPOCH":8321,"BSTAR":0.00075918,"MEAN_MOTION_DOT":0.00025564,"MEAN_MOTION_DDOT":0},{"OBJECT_NAME":"FLOCK 4G-34","OBJECT_ID":"2025-009AT","EPOCH":"2026-07-15T04:35:52.749600","CLASSIFICATION_TYPE":"U","MEAN_MOTION":15.29774862,"ECCENTRICITY":0.0002347,"INCLINATION":97.3966,"RA_OF_ASC_NODE":277.6413,"ARG_OF_PERICENTER":162.6754,"MEAN_ANOMALY":197.4567,"EPHEMERIS_TYPE":0,"NORAD_CAT_ID":62650,"ELEMENT_SET_NO":999,"REV_AT_EPOCH":8319,"BSTAR":0.00019471,"MEAN_MOTION_DOT":0.00005539,"MEAN_MOTION_DDOT":0},{"OBJECT_NAME":"FLOCK 4G-21","OBJECT_ID":"2025-009AU","EPOCH":"2026-07-15T04:13:25.383936","CLASSIFICATION_TYPE":"U","MEAN_MOTION":15.32869429,"ECCENTRICITY":0.0003249,"INCLINATION":97.3995,"RA_OF_ASC_NODE":278.6284,"ARG_OF_PERICENTER":190.6946,"MEAN_ANOMALY":169.4227,"EPHEMERIS_TYPE":0,"NORAD_CAT_ID":62651,"ELEMENT_SET_NO":999,"REV_AT_EPOCH":8324,"BSTAR":0.00069069,"MEAN_MOTION_DOT":0.00021889,"MEAN_MOTION_DDOT":0},{"OBJECT_NAME":"FLOCK 4G-31","OBJECT_ID":"2025-009AV","EPOCH":"2026-07-15T03:44:44.054016","CLASSIFICATION_TYPE":"U","MEAN_MOTION":15.29579867,"ECCENTRICITY":0.0001852,"INCLINATION":97.397,"RA_OF_ASC_NODE":277.578,"ARG_OF_PERICENTER":157.7942,"MEAN_ANOMALY":202.3379,"EPHEMERIS_TYPE":0,"NORAD_CAT_ID":62652,"ELEMENT_SET_NO":999,"REV_AT_EPOCH":8318,"BSTAR":0.00020664,"MEAN_MOTION_DOT":0.00005848,"MEAN_MOTION_DDOT":0},{"OBJECT_NAME":"FLOCK 4G-4","OBJECT_ID":"2025-009BC","EPOCH":"2026-07-15T04:39:14.217984","CLASSIFICATION_TYPE":"U","MEAN_MOTION":15.32145933,"ECCENTRICITY":0.0004688,"INCLINATION":97.3949,"RA_OF_ASC_NODE":277.4279,"ARG_OF_PERICENTER":192.88,"MEAN_ANOMALY":167.2323,"EPHEMERIS_TYPE":0,"NORAD_CAT_ID":62659,"ELEMENT_SET_NO":999,"REV_AT_EPOCH":14079,"BSTAR":0.00065508,"MEAN_MOTION_DOT":0.00020291,"MEAN_MOTION_DDOT":0},{"OBJECT_NAME":"FLOCK 4G-6","OBJECT_ID":"2025-009BD","EPOCH":"2026-07-15T05:03:20.041632","CLASSIFICATION_TYPE":"U","MEAN_MOTION":15.29977941,"ECCENTRICITY":0.0002875,"INCLINATION":97.3944,"RA_OF_ASC_NODE":277.4841,"ARG_OF_PERICENTER":201.177,"MEAN_ANOMALY":158.9352,"EPHEMERIS_TYPE":0,"NORAD_CAT_ID":62660,"ELEMENT_SET_NO":999,"REV_AT_EPOCH":14078,"BSTAR":0.000187,"MEAN_MOTION_DOT":0.0000535,"MEAN_MOTION_DDOT":0},{"OBJECT_NAME":"FLOCK 4G-2","OBJECT_ID":"2025-009BE","EPOCH":"2026-07-15T04:54:06.710112","CLASSIFICATION_TYPE":"U","MEAN_MOTION":15.30328143,"ECCENTRICITY":0.0003747,"INCLINATION":97.4012,"RA_OF_ASC_NODE":278.1196,"ARG_OF_PERICENTER":201.5181,"MEAN_ANOMALY":158.5903,"EPHEMERIS_TYPE":0,"NORAD_CAT_ID":62661,"ELEMENT_SET_NO":999,"REV_AT_EPOCH":14081,"BSTAR":0.00019771,"MEAN_MOTION_DOT":0.00005724,"MEAN_MOTION_DDOT":0},{"OBJECT_NAME":"FLOCK 4G-5","OBJECT_ID":"2025-009BG","EPOCH":"2026-07-15T03:12:39.532896","CLASSIFICATION_TYPE":"U","MEAN_MOTION":15.30905188,"ECCENTRICITY":0.000348,"INCLINATION":97.4028,"RA_OF_ASC_NODE":278.4495,"ARG_OF_PERICENTER":182.0007,"MEAN_ANOMALY":178.122,"EPHEMERIS_TYPE":0,"NORAD_CAT_ID":62663,"ELEMENT_SET_NO":999,"REV_AT_EPOCH":8321,"BSTAR":0.00017102,"MEAN_MOTION_DOT":0.0000503,"MEAN_MOTION_DDOT":0},{"OBJECT_NAME":"FLOCK 4G-1","OBJECT_ID":"2025-009BK","EPOCH":"2026-07-15T04:32:21.219936","CLASSIFICATION_TYPE":"U","MEAN_MOTION":15.30188647,"ECCENTRICITY":0.0003998,"INCLINATION":97.4025,"RA_OF_ASC_NODE":278.0838,"ARG_OF_PERICENTER":198.7526,"MEAN_ANOMALY":161.3568,"EPHEMERIS_TYPE":0,"NORAD_CAT_ID":62666,"ELEMENT_SET_NO":999,"REV_AT_EPOCH":8319,"BSTAR":0.00020535,"MEAN_MOTION_DOT":0.00005922,"MEAN_MOTION_DDOT":0},{"OBJECT_NAME":"FLOCK 4G-14","OBJECT_ID":"2025-009BL","EPOCH":"2026-07-15T03:42:57.026880","CLASSIFICATION_TYPE":"U","MEAN_MOTION":15.29734844,"ECCENTRICITY":0.0004191,"INCLINATION":97.4026,"RA_OF_ASC_NODE":277.8462,"ARG_OF_PERICENTER":194.2678,"MEAN_ANOMALY":165.8445,"EPHEMERIS_TYPE":0,"NORAD_CAT_ID":62667,"ELEMENT_SET_NO":999,"REV_AT_EPOCH":8317,"BSTAR":0.00021338,"MEAN_MOTION_DOT":0.00006071,"MEAN_MOTION_DDOT":0},{"OBJECT_NAME":"FLOCK 4G-10","OBJECT_ID":"2025-009BP","EPOCH":"2026-07-15T03:58:40.173600","CLASSIFICATION_TYPE":"U","MEAN_MOTION":15.29838382,"ECCENTRICITY":0.0003686,"INCLINATION":97.3925,"RA_OF_ASC_NODE":277.1546,"ARG_OF_PERICENTER":213.0825,"MEAN_ANOMALY":147.0186,"EPHEMERIS_TYPE":0,"NORAD_CAT_ID":62670,"ELEMENT_SET_NO":999,"REV_AT_EPOCH":14081,"BSTAR":0.00022662,"MEAN_MOTION_DOT":0.00006473,"MEAN_MOTION_DDOT":0},{"OBJECT_NAME":"FLOCK 4G-36","OBJECT_ID":"2025-009BU","EPOCH":"2026-07-15T03:50:47.264064","CLASSIFICATION_TYPE":"U","MEAN_MOTION":15.2981077,"ECCENTRICITY":0.0004333,"INCLINATION":97.4014,"RA_OF_ASC_NODE":277.7732,"ARG_OF_PERICENTER":200.0008,"MEAN_ANOMALY":160.1063,"EPHEMERIS_TYPE":0,"NORAD_CAT_ID":62675,"ELEMENT_SET_NO":999,"REV_AT_EPOCH":8317,"BSTAR":0.00022445,"MEAN_MOTION_DOT":0.00006405,"MEAN_MOTION_DDOT":0},{"OBJECT_NAME":"FLOCK 4G-15","OBJECT_ID":"2025-009BX","EPOCH":"2026-07-15T04:00:46.467072","CLASSIFICATION_TYPE":"U","MEAN_MOTION":15.29901157,"ECCENTRICITY":0.0004568,"INCLINATION":97.4018,"RA_OF_ASC_NODE":277.9227,"ARG_OF_PERICENTER":196.9715,"MEAN_ANOMALY":163.1373,"EPHEMERIS_TYPE":0,"NORAD_CAT_ID":62678,"ELEMENT_SET_NO":999,"REV_AT_EPOCH":14082,"BSTAR":0.00022703,"MEAN_MOTION_DOT":0.00006498,"MEAN_MOTION_DDOT":0},{"OBJECT_NAME":"FLOCK 4G-30","OBJECT_ID":"2025-009BY","EPOCH":"2026-07-15T04:13:15.398688","CLASSIFICATION_TYPE":"U","MEAN_MOTION":15.33949522,"ECCENTRICITY":0.0004365,"INCLINATION":97.3921,"RA_OF_ASC_NODE":277.4536,"ARG_OF_PERICENTER":196.659,"MEAN_ANOMALY":163.451,"EPHEMERIS_TYPE":0,"NORAD_CAT_ID":62679,"ELEMENT_SET_NO":999,"REV_AT_EPOCH":14083,"BSTAR":0.00071252,"MEAN_MOTION_DOT":0.00023372,"MEAN_MOTION_DDOT":0},{"OBJECT_NAME":"FLOCK 4G-18","OBJECT_ID":"2025-009BZ","EPOCH":"2026-07-15T02:59:54.188736","CLASSIFICATION_TYPE":"U","MEAN_MOTION":15.32201537,"ECCENTRICITY":0.0006136,"INCLINATION":97.4012,"RA_OF_ASC_NODE":277.7985,"ARG_OF_PERICENTER":211.4073,"MEAN_ANOMALY":148.6803,"EPHEMERIS_TYPE":0,"NORAD_CAT_ID":62680,"ELEMENT_SET_NO":999,"REV_AT_EPOCH":14081,"BSTAR":0.00073719,"MEAN_MOTION_DOT":0.00022897,"MEAN_MOTION_DDOT":0},{"OBJECT_NAME":"FLOCK 4G-17","OBJECT_ID":"2025-009CA","EPOCH":"2026-07-15T03:04:36.181056","CLASSIFICATION_TYPE":"U","MEAN_MOTION":15.30082771,"ECCENTRICITY":0.0004099,"INCLINATION":97.3924,"RA_OF_ASC_NODE":277.3548,"ARG_OF_PERICENTER":213.4988,"MEAN_ANOMALY":146.5994,"EPHEMERIS_TYPE":0,"NORAD_CAT_ID":62681,"ELEMENT_SET_NO":999,"REV_AT_EPOCH":14082,"BSTAR":0.0002108,"MEAN_MOTION_DOT":0.00006062,"MEAN_MOTION_DDOT":0}]}
