FLOCK 4G-23             
1 62647U 25009AQ  26196.16291813  .00025564  00000+0  75918-3 0  9990
2 62647  97.3930 277.8521 0003173 172.6489 187.4801 15.34765088 83211
FLOCK 4G-34             
1 62650U 25009AT  26196.19158275  .00005539  00000+0  19471-3 0  9993
2 62650  97.3966 277.6413 0002347 162.6754 197.4567 15.29774862 83199
FLOCK 4G-21             
1 62651U 25009AU  26196.17598824  .00021889  00000+0  69069-3 0  9994
2 62651  97.3995 278.6284 0003249 190.6946 169.4227 15.32869429 83241
FLOCK 4G-31             
1 62652U 25009AV  26196.15606544  .00005848  00000+0  20664-3 0  9997
2 62652  97.3970 277.5780 0001852 157.7942 202.3379 15.29579867 83180
FLOCK 4G-4              
1 62659U 25009BC  26196.19391456  .00020291  00000+0  65508-3 0  9996
2 62659  97.3949 277.4279 0004688 192.8800 167.2323 15.32145933140794
FLOCK 4G-6              
1 62660U 25009BD  26196.21064863  .00005350  00000+0  18700-3 0  9991
2 62660  97.3944 277.4841 0002875 201.1770 158.9352 15.29977941140788
FLOCK 4G-2              
1 62661U 25009BE  26196.20424433  .00005724  00000+0  19771-3 0  9998
2 62661  97.4012 278.1196 0003747 201.5181 158.5903 15.30328143140814
FLOCK 4G-5              
1 62663U 25009BG  26196.13379089  .00005030  00000+0  17102-3 0  9994
2 62663  97.4028 278.4495 0003480 182.0007 178.1220 15.30905188 83212
FLOCK 4G-1              
1 62666U 25009BK  26196.18913449  .00005922  00000+0  20535-3 0  9990
2 62666  97.4025 278.0838 0003998 198.7526 161.3568 15.30188647 83192
FLOCK 4G-14             
1 62667U 25009BL  26196.15482670  .00006071  00000+0  21338-3 0  9993
2 62667  97.4026 277.8462 0004191 194.2678 165.8445 15.29734844 83174
FLOCK 4G-10             
1 62670U 25009BP  26196.16574275  .00006473  00000+0  22662-3 0  9998
2 62670  97.3925 277.1546 0003686 213.0825 147.0186 15.29838382140814
FLOCK 4G-36             
1 62675U 25009BU  26196.16026926  .00006405  00000+0  22445-3 0  9992
2 62675  97.4014 277.7732 0004333 200.0008 160.1063 15.29810770 83177
FLOCK 4G-15             
1 62678U 25009BX  26196.16720448  .00006498  00000+0  22703-3 0  9994
2 62678  97.4018 277.9227 0004568 196.9715 163.1373 15.29901157140826
FLOCK 4G-30             
1 62679U 25009BY  26196.17587267  .00023372  00000+0  71252-3 0  9999
2 62679  97.3921 277.4536 0004365 196.6590 163.4510 15.33949522140830
FLOCK 4G-18             
1 62680U 25009BZ  26196.12493274  .00022897  00000+0  73719-3 0  9991
2 62680  97.4012 277.7985 0006136 211.4073 148.6803 15.32201537140819
FLOCK 4G-17             
1 62681U 25009CA  26196.12819654  .00006062  00000+0  21080-3 0  9996
2 62681  97.3924 277.3548 0004099 213.4988 146.5994 15.30082771140829
